{"type": "FeatureCollection", "features": [ {"type": "Feature", "properties": {"norad_id": 66052, "name": "HRC MONOBLOCK CAMERA", "group": "stations", "lat": 10.712391854646247, "lon": -83.05965864303664, "alt_km": 401.31859060560146, "timestamp": "2025-12-19T22:41:51.128850+00:00", "meta": {"OBJECT_NAME": "HRC MONOBLOCK CAMERA", "OBJECT_ID": "1998-067XR", "EPOCH": "2025-12-18T22:50:37.822560", "MEAN_MOTION": 15.54565744, "ECCENTRICITY": 0.00026331, "INCLINATION": 51.6297, "RA_OF_ASC_NODE": 110.5221, "ARG_OF_PERICENTER": 211.9232, "MEAN_ANOMALY": 148.16, "EPHEMERIS_TYPE": 0, "CLASSIFICATION_TYPE": "U", "NORAD_CAT_ID": 66052, "ELEMENT_SET_NO": 999, "REV_AT_EPOCH": 980, "BSTAR": 0.00046533518, "MEAN_MOTION_DOT": 0.00030942, "MEAN_MOTION_DDOT": 0}, "tle": {"line1": "1 66052U 98067XR  25352.95182665  .00030942  00000+0  46534-3 0  9990", "line2": "2 66052  51.6297 110.5221 0002633 211.9232 148.1600 15.54565744  9800"}}, "geometry": {"type": "Point", "coordinates": [-83.05965864303664, 10.712391854646247]}}, {"type": "Feature", "properties": {"norad_id": 66174, "name": "HTV-X1", "group": "stations", "lat": -45.27563041029515, "lon": 53.67075465204391, "alt_km": 420.0986897578532, "timestamp": "2025-12-19T22:41:51.128860+00:00", "meta": {"OBJECT_NAME": "HTV-X1", "OBJECT_ID": "2025-241A", "EPOCH": "2025-12-19T10:35:44.375712", "MEAN_MOTION": 15.49667075, "ECCENTRICITY": 0.00031732, "INCLINATION": 51.6317, "RA_OF_ASC_NODE": 109.2912, "ARG_OF_PERICENTER": 271.328, "MEAN_ANOMALY": 88.7345, "EPHEMERIS_TYPE": 0, "CLASSIFICATION_TYPE": "U", "NORAD_CAT_ID": 66174, "ELEMENT_SET_NO": 999, "REV_AT_EPOCH": 51, "BSTAR": 0.00012809493, "MEAN_MOTION_DOT": 6.778e-05, "MEAN_MOTION_DDOT": 0}, "tle": {"line1": "1 66174U 25241A   25353.44148583  .00006778  00000+0  12809-3 0  9993", "line2": "2 66174  51.6317 109.2912 0003173 271.3280  88.7345 15.49667075   511"}}, "geometry": {"type": "Point", "coordinates": [53.67075465204391, -45.27563041029515]}}, {"type": "Feature", "properties": {"norad_id": 66515, "name": "SZ-21 MODULE", "group": "stations", "lat": -24.934534668160136, "lon": -59.680112957615385, "alt_km": 377.99909395935083, "timestamp": "2025-12-19T22:41:51.128870+00:00", "meta": {"OBJECT_NAME": "SZ-21 MODULE", "OBJECT_ID": "2025-246C", "EPOCH": "2025-12-19T05:59:43.928736", "MEAN_MOTION": 15.62811821, "ECCENTRICITY": 0.0005734, "INCLINATION": 41.4773, "RA_OF_ASC_NODE": 336.3242, "ARG_OF_PERICENTER": 295.0263, "MEAN_ANOMALY": 64.9981, "EPHEMERIS_TYPE": 0, "CLASSIFICATION_TYPE": "U", "NORAD_CAT_ID": 66515, "ELEMENT_SET_NO": 999, "REV_AT_EPOCH": 546, "BSTAR": 0.00023433, "MEAN_MOTION_DOT": 0.00021457, "MEAN_MOTION_DDOT": 0}, "tle": {"line1": "1 66515U 25246C   25353.24981399  .00021457  00000+0  23433-3 0  9991", "line2": "2 66515  41.4773 336.3242 0005734 295.0263  64.9981 15.62811821  5467"}}, "geometry": {"type": "Point", "coordinates": [-59.680112957615385, -24.934534668160136]}}, {"type": "Feature", "properties": {"norad_id": 66645, "name": "SHENZHOU-22", "group": "stations", "lat": -22.197043922531613, "lon": -54.56954926378862, "alt_km": 394.31255492112814, "timestamp": "2025-12-19T22:41:51.128880+00:00", "meta": {"OBJECT_NAME": "SHENZHOU-22", "OBJECT_ID": "2025-272A", "EPOCH": "2025-12-19T09:00:48.563712", "MEAN_MOTION": 15.59465114, "ECCENTRICITY": 0.00077296, "INCLINATION": 41.4684, "RA_OF_ASC_NODE": 336.4137, "ARG_OF_PERICENTER": 89.1398, "MEAN_ANOMALY": 271.0326, "EPHEMERIS_TYPE": 0, "CLASSIFICATION_TYPE": "U", "NORAD_CAT_ID": 66645, "ELEMENT_SET_NO": 999, "REV_AT_EPOCH": 26357, "BSTAR": 0.00025572286, "MEAN_MOTION_DOT": 0.00020582, "MEAN_MOTION_DDOT": 0}, "tle": {"line1": "1 66645U 25272A   25353.37556208  .00020582  00000+0  25572-3 0  9999", "line2": "2 66645  41.4684 336.4137 0007729  89.1398 271.0326 15.59465114263571"}}, "geometry": {"type": "Point", "coordinates": [-54.56954926378862, -22.197043922531613]}}, {"type": "Feature", "properties": {"norad_id": 66664, "name": "SOYUZ-MS 28", "group": "stations", "lat": -45.27560320772865, "lon": 53.670827122833956, "alt_km": 420.09868960326276, "timestamp": "2025-12-19T22:41:51.128892+00:00", "meta": {"OBJECT_NAME": "SOYUZ-MS 28", "OBJECT_ID": "2025-275A", "EPOCH": "2025-12-19T10:35:44.374848", "MEAN_MOTION": 15.49667075, "ECCENTRICITY": 0.0003173, "INCLINATION": 51.6317, "RA_OF_ASC_NODE": 109.2912, "ARG_OF_PERICENTER": 271.328, "MEAN_ANOMALY": 88.7345, "EPHEMERIS_TYPE": 0, "CLASSIFICATION_TYPE": "U", "NORAD_CAT_ID": 66664, "ELEMENT_SET_NO": 999, "REV_AT_EPOCH": 348, "BSTAR": 0.00012809, "MEAN_MOTION_DOT": 6.778e-05, "MEAN_MOTION_DDOT": 0}, "tle": {"line1": "1 66664U 25275A   25353.44148582  .00006778  00000+0  12809-3 0  9993", "line2": "2 66664  51.6317 109.2912 0003173 271.3280  88.7345 15.49667075  3484"}}, "geometry": {"type": "Point", "coordinates": [53.670827122833956, -45.27560320772865]}}, {"type": "Feature", "properties": {"norad_id": 66906, "name": "1998-067XS", "group": "stations", "lat": -4.465602006318929, "lon": 103.12245280805895, "alt_km": 416.285054749148, "timestamp": "2025-12-19T22:41:51.128903+00:00", "meta": {"OBJECT_NAME": "1998-067XS", "OBJECT_ID": "1998-067XS", "EPOCH": "2025-12-19T08:48:14.715072", "MEAN_MOTION": 15.50914025, "ECCENTRICITY": 0.0003058, "INCLINATION": 51.6312, "RA_OF_ASC_NODE": 109.5436, "ARG_OF_PERICENTER": 233.4927, "MEAN_ANOMALY": 126.5781, "EPHEMERIS_TYPE": 0, "CLASSIFICATION_TYPE": "U", "NORAD_CAT_ID": 66906, "ELEMENT_SET_NO": 999, "REV_AT_EPOCH": 264, "BSTAR": 0.00035748, "MEAN_MOTION_DOT": 0.0002067, "MEAN_MOTION_DDOT": 0}, "tle": {"line1": "1 66906U 98067XS  25353.36683698  .00020670  00000+0  35748-3 0  9998", "line2": "2 66906  51.6312 109.5436 0003058 233.4927 126.5781 15.50914025  2645"}}, "geometry": {"type": "Point", "coordinates": [103.12245280805895, -4.465602006318929]}}, {"type": "Feature", "properties": {"norad_id": 66907, "name": "1998-067XT", "group": "stations", "lat": 29.632480602978575, "lon": 133.3634456958953, "alt_km": 408.07331075563343, "timestamp": "2025-12-19T22:41:51.128914+00:00", "meta": {"OBJECT_NAME": "1998-067XT", "OBJECT_ID": "1998-067XT", "EPOCH": "2025-12-19T11:42:50.767776", "MEAN_MOTION": 15.52255247, "ECCENTRICITY": 0.0003998, "INCLINATION": 51.6306, "RA_OF_ASC_NODE": 108.8528, "ARG_OF_PERICENTER": 265.7173, "MEAN_ANOMALY": 94.336, "EPHEMERIS_TYPE": 0, "CLASSIFICATION_TYPE": "U", "NORAD_CAT_ID": 66907, "ELEMENT_SET_NO": 999, "REV_AT_EPOCH": 266, "BSTAR": 0.00077339, "MEAN_MOTION_DOT": 0.00047666, "MEAN_MOTION_DDOT": 0}, "tle": {"line1": "1 66907U 98067XT  25353.48808759  .00047666  00000+0  77339-3 0  9995", "line2": "2 66907  51.6306 108.8528 0003998 265.7173  94.3360 15.52255247  2660"}}, "geometry": {"type": "Point", "coordinates": [133.3634456958953, 29.632480602978575]}}, {"type": "Feature", "properties": {"norad_id": 66908, "name": "1998-067XU", "group": "stations", "lat": 32.57288775803809, "lon": 136.97410356574903, "alt_km": 407.4866420488079, "timestamp": "2025-12-19T22:41:51.128924+00:00", "meta": {"OBJECT_NAME": "1998-067XU", "OBJECT_ID": "1998-067XU", "EPOCH": "2025-12-18T14:03:56.443680", "MEAN_MOTION": 15.52259493, "ECCENTRICITY": 0.00039838, "INCLINATION": 51.6306, "RA_OF_ASC_NODE": 113.3296, "ARG_OF_PERICENTER": 260.0245, "MEAN_ANOMALY": 100.0295, "EPHEMERIS_TYPE": 0, "CLASSIFICATION_TYPE": "U", "NORAD_CAT_ID": 66908, "ELEMENT_SET_NO": 999, "REV_AT_EPOCH": 252, "BSTAR": 0.00087908108, "MEAN_MOTION_DOT": 0.00054298, "MEAN_MOTION_DDOT": 0}, "tle": {"line1": "1 66908U 98067XU  25352.58606995  .00054298  00000+0  87908-3 0  9996", "line2": "2 66908  51.6306 113.3296 0003983 260.0245 100.0295 15.52259493  2520"}}, "geometry": {"type": "Point", "coordinates": [136.97410356574903, 32.57288775803809]}}, {"type": "Feature", "properties": {"norad_id": 66909, "name": "SILVERSAT", "group": "stations", "lat": 36.130096041080236, "lon": 141.8943355893487, "alt_km": 406.4285429289703, "timestamp": "2025-12-19T22:41:51.128934+00:00", "meta": {"OBJECT_NAME": "SILVERSAT", "OBJECT_ID": "1998-067XV", "EPOCH": "2025-12-19T13:13:09.424128", "MEAN_MOTION": 15.5251652, "ECCENTRICITY": 0.0003839, "INCLINATION": 51.6306, "RA_OF_ASC_NODE": 108.5226, "ARG_OF_PERICENTER": 268.696, "MEAN_ANOMALY": 91.359, "EPHEMERIS_TYPE": 0, "CLASSIFICATION_TYPE": "U", "NORAD_CAT_ID": 66909, "ELEMENT_SET_NO": 999, "REV_AT_EPOCH": 267, "BSTAR": 0.00079912, "MEAN_MOTION_DOT": 0.00049748, "MEAN_MOTION_DDOT": 0}, "tle": {"line1": "1 66909U 98067XV  25353.55080352  .00049748  00000+0  79912-3 0  9998", "line2": "2 66909  51.6306 108.5226 0003839 268.6960  91.3590 15.52516520  2671"}}, "geometry": {"type": "Point", "coordinates": [141.8943355893487, 36.130096041080236]}}, {"type": "Feature", "properties": {"norad_id": 66910, "name": "1998-067XW", "group": "stations", "lat": 42.08452320512935, "lon": 152.22035401671724, "alt_km": 406.4831745247029, "timestamp": "2025-12-19T22:41:51.128944+00:00", "meta": {"OBJECT_NAME": "1998-067XW", "OBJECT_ID": "1998-067XW", "EPOCH": "2025-12-19T13:10:35.176800", "MEAN_MOTION": 15.525263, "ECCENTRICITY": 0.0004382, "INCLINATION": 51.6305, "RA_OF_ASC_NODE": 108.5102, "ARG_OF_PERICENTER": 243.3936, "MEAN_ANOMALY": 116.6605, "EPHEMERIS_TYPE": 0, "CLASSIFICATION_TYPE": "U", "NORAD_CAT_ID": 66910, "ELEMENT_SET_NO": 999, "REV_AT_EPOCH": 267, "BSTAR": 0.00069409, "MEAN_MOTION_DOT": 0.0004313, "MEAN_MOTION_DDOT": 0}, "tle": {"line1": "1 66910U 98067XW  25353.54901825  .00043130  00000+0  69409-3 0  9995", "line2": "2 66910  51.6305 108.5102 0004382 243.3936 116.6605 15.52526300  2677"}}, "geometry": {"type": "Point", "coordinates": [152.22035401671724, 42.08452320512935]}}]}